0 CZ-4 DEB
1 28067U 99057MX  13282.68461837  .00001305  00000-0  38984-3 0  2180
2 28067 098.3660 244.1192 0098618 166.3794 194.0093 14.41833063571910
0 CZ-4 DEB
1 28067U 99057MX  13284.14196043  .00001632  00000-0  48407-3 0  2192
2 28067 098.3661 245.5476 0098737 161.9701 198.5031 14.41837216572121
0 CZ-4 DEB
1 28067U 99057MX  13285.73809089  .00001459  00000-0  43399-3 0  2203
2 28067 098.3665 247.1120 0098826 157.1616 203.4014 14.41841419572352
0 CZ-4 DEB
1 28067U 99057MX  13286.84843910  .00001627  00000-0  48218-3 0  2210
2 28067 098.3667 248.2002 0098930 153.8001 206.8242 14.41844085572512
0 CZ-4 DEB
1 28067U 99057MX  13288.09757832  .00002297  00000-0  67530-3 0  2229
2 28067 098.3670 249.4244 0099024 150.0416 210.6491 14.41851024572690
0 CZ-4 DEB
1 28067U 99057MX  13289.13852260  .00001956  00000-0  57689-3 0  2232
2 28067 098.3674 250.4446 0099084 146.9002 213.8441 14.41856260572845
0 CZ-4 DEB
1 28067U 99057MX  13290.66523408  .00002029  00000-0  59781-3 0  2249
2 28067 098.3677 251.9410 0099195 142.3045 218.5150 14.41861766573066
0 CZ-4 DEB
1 28067U 99057MX  13291.70616929  .00002020  00000-0  59499-3 0  2254
2 28067 098.3678 252.9614 0099273 139.1793 221.6888 14.41864064573219
0 CZ-4 DEB
1 28067U 99057MX  13293.09407889  .00002196  00000-0  64573-3 0  2265
2 28067 098.3679 254.3220 0099386 135.0066 225.9231 14.41867947573416
0 CZ-4 DEB
1 28067U 99057MX  13294.69016872  .00002357  00000-0  69187-3 0  2276
2 28067 098.3679 255.8868 0099486 130.2336 230.7609 14.41875037573645
0 CZ-4 DEB
1 28067U 99057MX  13295.73109249  .00002373  00000-0  69614-3 0  2287
2 28067 098.3679 256.9074 0099560 127.1052 233.9288 14.41878556573792
